STARLINK-35764          
1 67109U 25299H   26012.72063274  .00040732  00000+0  97749-3 0  9996
2 67109  43.0000 131.3874 0001357 278.6080  81.4623 15.40689246  5572
STARLINK-35781          
1 67110U 25299J   26012.91668981  .00012992  00000+0  31778-3 0  9992
2 67110  42.9998 130.0450 0001521 266.3787 189.5284 15.40696853  5772
STARLINK-35875          
1 67111U 25299K   26012.91668981  .00006229  00000+0  15628-3 0  9995
2 67111  42.9993 129.8040 0001667 287.6970 267.7317 15.40694204  5718
STARLINK-35906          
1 67112U 25299L   26012.91668981 -.02401529  00000+0 -57852-1 0  9995
2 67112  42.9995 129.6316 0001641 259.9755   6.2215 15.44007263  5710
STARLINK-35789          
1 67113U 25299M   26012.91668981  .00011019  00000+0  27068-3 0  9991
2 67113  42.9998 129.9842 0001765 276.6385 204.1454 15.40698515  5719
STARLINK-36180          
1 67114U 25299N   26012.02770772  .00113514  00000+0  19135-2 0  9994
2 67114  42.9985 134.7758 0001668 302.1943  57.8755 15.50569189  4387
STARLINK-35892          
1 67115U 25299P   26012.71613995  .00040838  00000+0  97898-3 0  9995
2 67115  43.0026 131.3511 0002313 282.3687  77.6910 15.40719630  4489
STARLINK-35738          
1 67116U 25299Q   26012.70943305  .00047321  00000+0  11317-2 0  9991
2 67116  42.9982 131.2973 0000988  40.9324 319.1606 15.40735622  4487
STARLINK-35674          
1 67117U 25299R   26012.72510352  .00041172  00000+0  98654-3 0  9994
2 67117  42.9998 131.4223 0002047 263.6072  96.4552 15.40730354  4489
STARLINK-35701          
1 67118U 25299S   26012.91668981  .00019445  00000+0  47161-3 0  9993
2 67118  42.9992 129.7730 0001827 271.1691 296.6510 15.40696770  5777
STARLINK-36179          
1 67119U 25299T   26012.59320635  .00029817  00000+0  71829-3 0  9991
2 67119  42.9999 132.1490 0001616 265.0300  95.0372 15.40698309  4463
STARLINK-36217          
1 67120U 25299U   26012.91668981  .00023539  00000+0  56948-3 0  9998
2 67120  42.9996 129.6514 0001305 289.9690 327.6869 15.40676033  5817
