CCSDS_OMM_VERS = 2.0
CREATION_DATE  = 
ORIGINATOR     = 

OBJECT_NAME    = STARLINK-35764
OBJECT_ID      = 2025-299H
CENTER_NAME    = EARTH
REF_FRAME      = TEME
TIME_SYSTEM    = UTC
MEAN_ELEMENT_THEORY = SGP/SGP4

EPOCH          = 2026-01-12T17:17:42.668736
MEAN_MOTION    = 15.40689246
ECCENTRICITY   = .0001357
INCLINATION    = 43.0000
RA_OF_ASC_NODE = 131.3874
ARG_OF_PERICENTER = 278.6080
MEAN_ANOMALY   = 81.4623

EPHEMERIS_TYPE = 0
CLASSIFICATION_TYPE = U
NORAD_CAT_ID   = 67109
ELEMENT_SET_NO = 999
REV_AT_EPOCH   = 557
BSTAR          = .97748736E-3
MEAN_MOTION_DOT = .40732E-3
MEAN_MOTION_DDOT = 0

CCSDS_OMM_VERS = 2.0
CREATION_DATE  = 
ORIGINATOR     = 

OBJECT_NAME    = STARLINK-35781
OBJECT_ID      = 2025-299J
CENTER_NAME    = EARTH
REF_FRAME      = TEME
TIME_SYSTEM    = UTC
MEAN_ELEMENT_THEORY = SGP/SGP4

EPOCH          = 2026-01-12T22:00:01.999584
MEAN_MOTION    = 15.40696853
ECCENTRICITY   = .00015213
INCLINATION    = 42.9998
RA_OF_ASC_NODE = 130.0450
ARG_OF_PERICENTER = 266.3787
MEAN_ANOMALY   = 189.5284

EPHEMERIS_TYPE = 0
CLASSIFICATION_TYPE = U
NORAD_CAT_ID   = 67110
ELEMENT_SET_NO = 999
REV_AT_EPOCH   = 577
BSTAR          = .31778432E-3
MEAN_MOTION_DOT = .12992E-3
MEAN_MOTION_DDOT = 0

CCSDS_OMM_VERS = 2.0
CREATION_DATE  = 
ORIGINATOR     = 

OBJECT_NAME    = STARLINK-35875
OBJECT_ID      = 2025-299K
CENTER_NAME    = EARTH
REF_FRAME      = TEME
TIME_SYSTEM    = UTC
MEAN_ELEMENT_THEORY = SGP/SGP4

EPOCH          = 2026-01-12T22:00:01.999584
MEAN_MOTION    = 15.40694204
ECCENTRICITY   = .00016673
INCLINATION    = 42.9993
RA_OF_ASC_NODE = 129.8040
ARG_OF_PERICENTER = 287.6970
MEAN_ANOMALY   = 267.7317

EPHEMERIS_TYPE = 0
CLASSIFICATION_TYPE = U
NORAD_CAT_ID   = 67111
ELEMENT_SET_NO = 999
REV_AT_EPOCH   = 571
BSTAR          = .15627503E-3
MEAN_MOTION_DOT = .6229E-4
MEAN_MOTION_DDOT = 0

CCSDS_OMM_VERS = 2.0
CREATION_DATE  = 
ORIGINATOR     = 

OBJECT_NAME    = STARLINK-35906
OBJECT_ID      = 2025-299L
CENTER_NAME    = EARTH
REF_FRAME      = TEME
TIME_SYSTEM    = UTC
MEAN_ELEMENT_THEORY = SGP/SGP4

EPOCH          = 2026-01-12T22:00:01.999584
MEAN_MOTION    = 15.44007263
ECCENTRICITY   = .00016418
INCLINATION    = 42.9995
RA_OF_ASC_NODE = 129.6316
ARG_OF_PERICENTER = 259.9755
MEAN_ANOMALY   = 6.2215

EPHEMERIS_TYPE = 0
CLASSIFICATION_TYPE = U
NORAD_CAT_ID   = 67112
ELEMENT_SET_NO = 999
REV_AT_EPOCH   = 571
BSTAR          = -.57852205E-1
MEAN_MOTION_DOT = -.2401529E-1
MEAN_MOTION_DDOT = 0

CCSDS_OMM_VERS = 2.0
CREATION_DATE  = 
ORIGINATOR     = 

OBJECT_NAME    = STARLINK-35789
OBJECT_ID      = 2025-299M
CENTER_NAME    = EARTH
REF_FRAME      = TEME
TIME_SYSTEM    = UTC
MEAN_ELEMENT_THEORY = SGP/SGP4

EPOCH          = 2026-01-12T22:00:01.999584
MEAN_MOTION    = 15.40698515
ECCENTRICITY   = .00017653
INCLINATION    = 42.9998
RA_OF_ASC_NODE = 129.9842
ARG_OF_PERICENTER = 276.6385
MEAN_ANOMALY   = 204.1454

EPHEMERIS_TYPE = 0
CLASSIFICATION_TYPE = U
NORAD_CAT_ID   = 67113
ELEMENT_SET_NO = 999
REV_AT_EPOCH   = 571
BSTAR          = .27067547E-3
MEAN_MOTION_DOT = .11019E-3
MEAN_MOTION_DDOT = 0

CCSDS_OMM_VERS = 2.0
CREATION_DATE  = 
ORIGINATOR     = 

OBJECT_NAME    = STARLINK-36180
OBJECT_ID      = 2025-299N
CENTER_NAME    = EARTH
REF_FRAME      = TEME
TIME_SYSTEM    = UTC
MEAN_ELEMENT_THEORY = SGP/SGP4

EPOCH          = 2026-01-12T00:39:53.947008
MEAN_MOTION    = 15.50569189
ECCENTRICITY   = .00016686
INCLINATION    = 42.9985
RA_OF_ASC_NODE = 134.7758
ARG_OF_PERICENTER = 302.1943
MEAN_ANOMALY   = 57.8755

EPHEMERIS_TYPE = 0
CLASSIFICATION_TYPE = U
NORAD_CAT_ID   = 67114
ELEMENT_SET_NO = 999
REV_AT_EPOCH   = 438
BSTAR          = .19134528E-2
MEAN_MOTION_DOT = .113514E-2
MEAN_MOTION_DDOT = 0

CCSDS_OMM_VERS = 2.0
CREATION_DATE  = 
ORIGINATOR     = 

OBJECT_NAME    = STARLINK-35892
OBJECT_ID      = 2025-299P
CENTER_NAME    = EARTH
REF_FRAME      = TEME
TIME_SYSTEM    = UTC
MEAN_ELEMENT_THEORY = SGP/SGP4

EPOCH          = 2026-01-12T17:11:14.491680
MEAN_MOTION    = 15.40719630
ECCENTRICITY   = .00023132
INCLINATION    = 43.0026
RA_OF_ASC_NODE = 131.3511
ARG_OF_PERICENTER = 282.3687
MEAN_ANOMALY   = 77.6910

EPHEMERIS_TYPE = 0
CLASSIFICATION_TYPE = U
NORAD_CAT_ID   = 67115
ELEMENT_SET_NO = 999
REV_AT_EPOCH   = 448
BSTAR          = .97897781E-3
MEAN_MOTION_DOT = .40838E-3
MEAN_MOTION_DDOT = 0

CCSDS_OMM_VERS = 2.0
CREATION_DATE  = 
ORIGINATOR     = 

OBJECT_NAME    = STARLINK-35738
OBJECT_ID      = 2025-299Q
CENTER_NAME    = EARTH
REF_FRAME      = TEME
TIME_SYSTEM    = UTC
MEAN_ELEMENT_THEORY = SGP/SGP4

EPOCH          = 2026-01-12T17:01:35.015520
MEAN_MOTION    = 15.40735622
ECCENTRICITY   = .0000988
INCLINATION    = 42.9982
RA_OF_ASC_NODE = 131.2973
ARG_OF_PERICENTER = 40.9324
MEAN_ANOMALY   = 319.1606

EPHEMERIS_TYPE = 0
CLASSIFICATION_TYPE = U
NORAD_CAT_ID   = 67116
ELEMENT_SET_NO = 999
REV_AT_EPOCH   = 448
BSTAR          = .11317225E-2
MEAN_MOTION_DOT = .47321E-3
MEAN_MOTION_DDOT = 0

CCSDS_OMM_VERS = 2.0
CREATION_DATE  = 
ORIGINATOR     = 

OBJECT_NAME    = STARLINK-35674
OBJECT_ID      = 2025-299R
CENTER_NAME    = EARTH
REF_FRAME      = TEME
TIME_SYSTEM    = UTC
MEAN_ELEMENT_THEORY = SGP/SGP4

EPOCH          = 2026-01-12T17:24:08.944128
MEAN_MOTION    = 15.40730354
ECCENTRICITY   = .0002047
INCLINATION    = 42.9998
RA_OF_ASC_NODE = 131.4223
ARG_OF_PERICENTER = 263.6072
MEAN_ANOMALY   = 96.4552

EPHEMERIS_TYPE = 0
CLASSIFICATION_TYPE = U
NORAD_CAT_ID   = 67117
ELEMENT_SET_NO = 999
REV_AT_EPOCH   = 448
BSTAR          = .98654438E-3
MEAN_MOTION_DOT = .41172E-3
MEAN_MOTION_DDOT = 0

CCSDS_OMM_VERS = 2.0
CREATION_DATE  = 
ORIGINATOR     = 

OBJECT_NAME    = STARLINK-35701
OBJECT_ID      = 2025-299S
CENTER_NAME    = EARTH
REF_FRAME      = TEME
TIME_SYSTEM    = UTC
MEAN_ELEMENT_THEORY = SGP/SGP4

EPOCH          = 2026-01-12T22:00:01.999584
MEAN_MOTION    = 15.40696770
ECCENTRICITY   = .00018275
INCLINATION    = 42.9992
RA_OF_ASC_NODE = 129.7730
ARG_OF_PERICENTER = 271.1691
MEAN_ANOMALY   = 296.6510

EPHEMERIS_TYPE = 0
CLASSIFICATION_TYPE = U
NORAD_CAT_ID   = 67118
ELEMENT_SET_NO = 999
REV_AT_EPOCH   = 577
BSTAR          = .47161307E-3
MEAN_MOTION_DOT = .19445E-3
MEAN_MOTION_DDOT = 0

CCSDS_OMM_VERS = 2.0
CREATION_DATE  = 
ORIGINATOR     = 

OBJECT_NAME    = STARLINK-36179
OBJECT_ID      = 2025-299T
CENTER_NAME    = EARTH
REF_FRAME      = TEME
TIME_SYSTEM    = UTC
MEAN_ELEMENT_THEORY = SGP/SGP4

EPOCH          = 2026-01-12T14:14:13.028640
MEAN_MOTION    = 15.40698309
ECCENTRICITY   = .00016165
INCLINATION    = 42.9999
RA_OF_ASC_NODE = 132.1490
ARG_OF_PERICENTER = 265.0300
MEAN_ANOMALY   = 95.0372

EPHEMERIS_TYPE = 0
CLASSIFICATION_TYPE = U
NORAD_CAT_ID   = 67119
ELEMENT_SET_NO = 999
REV_AT_EPOCH   = 446
BSTAR          = .71829453E-3
MEAN_MOTION_DOT = .29817E-3
MEAN_MOTION_DDOT = 0

CCSDS_OMM_VERS = 2.0
CREATION_DATE  = 
ORIGINATOR     = 

OBJECT_NAME    = STARLINK-36217
OBJECT_ID      = 2025-299U
CENTER_NAME    = EARTH
REF_FRAME      = TEME
TIME_SYSTEM    = UTC
MEAN_ELEMENT_THEORY = SGP/SGP4

EPOCH          = 2026-01-12T22:00:01.999584
MEAN_MOTION    = 15.40676033
ECCENTRICITY   = .00013059
INCLINATION    = 42.9996
RA_OF_ASC_NODE = 129.6514
ARG_OF_PERICENTER = 289.9690
MEAN_ANOMALY   = 327.6869

EPHEMERIS_TYPE = 0
CLASSIFICATION_TYPE = U
NORAD_CAT_ID   = 67120
ELEMENT_SET_NO = 999
REV_AT_EPOCH   = 581
BSTAR          = .56947946E-3
MEAN_MOTION_DOT = .23539E-3
MEAN_MOTION_DDOT = 0

